satname,norad_id,inclination_deg,eccentricity,mean_motion_rev_per_day,perigee_km,apogee_km,l1,l2
STARLINK-1452,45669,53.0345,0.0007343,15.41317419,437.21195765920766,447.22833416369303,1 45669U 20035N   26045.55741134  .00060785  00000+0  14336-2 0  9991,2 45669  53.0345 131.6189 0007343 322.6161  37.4332 15.41317419315792
STARLINK-1453,45670,53.0513,0.0006715,15.47823798,418.52649110509356,427.660543689959,1 45670U 20035P   26045.42890840  .00101350  00000+0  19015-2 0  9991,2 45670  53.0513 124.9459 0006715 310.2090  49.8328 15.47823798315769
STARLINK-1454,45671,53.0538,0.0006466,15.4655186,422.42196548110223,431.22213852715504,1 45671U 20035Q   26045.64604631  .00066510  00000+0  13128-2 0  9994,2 45671  53.0538 163.1857 0006466 332.4305  27.6358 15.46551860315340
STARLINK-1456,45673,53.0512,0.0003731,15.44986306,428.87766446254955,433.9589546345351,1 45673U 20035S   26045.57681667  .00041778  00000+0  87653-3 0  9996,2 45673  53.0512 156.9730 0003731 246.4483 113.6131 15.44986306315448
STARLINK-1457,45674,53.0486,0.0008656,15.72298571,346.5035240488769,358.15530750787275,1 45674U 20035T   26045.66668981  .00217252  00000+0  15689-2 0  9992,2 45674  53.0486 137.2053 0008656 344.3839 162.4337 15.72298571  5967
STARLINK-1458,45675,53.0545,0.0003527,15.39878261,444.0619468316909,448.8760238937657,1 45675U 20035U   26045.59687646  .00064047  00000+0  15839-2 0  9993,2 45675  53.0545 164.8901 0003527   3.1395 356.9630 15.39878261315290
STARLINK-1460,45676,53.0573,0.0001237,15.06392838,546.3768401918242,548.0901768556332,1 45676U 20035V   26045.61253731  .00000591  00000+0  58600-4 0  9990,2 45676  53.0573 170.2187 0001237  81.1101 279.0028 15.06392838315219
STARLINK-1392,45677,53.0571,0.0001395,15.06393253,546.2661475902078,548.1983256072181,1 45677U 20035W   26045.62359762 -.00000033  00000+0  16714-4 0  9995,2 45677  53.0571 170.1683 0001395  88.9136 271.2013 15.06393253315250
STARLINK-1394,45679,53.0528,0.0003357,15.43454583,433.6352827419296,438.2102424665427,1 45679U 20035Y   26045.55614212  .00046587  00000+0  10277-2 0  9992,2 45679  53.0528 147.1126 0003357 227.5364 132.5358 15.43454583315575
STARLINK-1402,45685,53.0495,0.0003293,15.41381556,439.7850662523051,444.2768288625666,1 45685U 20035AE  26045.53085117  .00055326  00000+0  13048-2 0  9993,2 45685  53.0495 133.3539 0003293 198.1809 161.9077 15.41381556315779
STARLINK-1404,45686,53.159,0.0001206,15.30225292,474.3130479540778,475.96605825868755,1 45686U 20035AF  26045.57443343  .00020153  00000+0  69018-3 0  9996,2 45686  53.1590 157.0645 0001206  64.7292 295.3834 15.30225292315432
STARLINK-1413,45689,53.1605,0.0001207,15.30191816,474.4123029328475,476.06670802127064,1 45689U 20035AJ  26045.58074473 -.00000481  00000+0 -41077-5 0  9995,2 45689  53.1605 156.9132 0001207  91.1117 269.0022 15.30191816315354
STARLINK-1417,45693,53.0522,0.0004749,15.11202663,529.2492076191566,535.8129601652372,1 45693U 20035AN  26045.52604753  .00030639  00000+0  18129-2 0  9999,2 45693  53.0522 159.1787 0004749 166.9078 193.2037 15.11202663315398
STARLINK-1420,45695,53.0547,0.000248,15.47912904,421.14586474633234,424.51914562090406,1 45695U 20035AQ  26045.47099064  .00025953  00000+0  49663-3 0  9999,2 45695  53.0547 133.8837 0002480  32.0001 328.1156 15.47912904315757
STARLINK-1422,45696,53.1605,0.0001202,15.30204001,474.3793516977321,476.02689466334505,1 45696U 20035AR  26045.58812188  .00004408  00000+0  16085-3 0  9996,2 45696  53.1605 156.8864 0001202  82.8400 277.2737 15.30204001315434
STARLINK-1351,45697,53.0551,0.0001459,15.49289842,417.81064071378387,419.7939876056553,1 45697U 20035AS  26045.64042368  .00021469  00000+0  39323-3 0  9995,2 45697  53.0551 132.2729 0001459  67.8221 292.2941 15.49289842315799
STARLINK-1398,45699,53.0405,0.0005372,15.81843064,321.6276329608445,328.8297290485161,1 45699U 20035AU  26045.66668981  .00137439  00000+0  65806-3 0  9994,2 45699  53.0405  56.1538 0005372  24.2872 297.5921 15.81843064  5934
STARLINK-1400,45700,53.053,0.0005081,15.46353314,423.94663147020765,430.8624227700675,1 45700U 20035AV  26045.64314054  .00063904  00000+0  12712-2 0  9996,2 45700  53.0530 133.2531 0005081   7.8013 352.3071 15.46353314315774
STARLINK-1403,45701,53.057,0.0001378,15.06385089,546.3029390538641,548.2115777114741,1 45701U 20035AW  26045.65217065  .00000496  00000+0  52222-4 0  9991,2 45701  53.0570 140.0348 0001378 104.1976 255.9166 15.06385089315677
STARLINK-1407,45703,53.0363,0.0012991,15.55917323,390.6825829538857,408.2922066564688,1 45703U 20035AY  26045.46807762  .00037693  00000+0  53643-3 0  9997,2 45703  53.0363  68.4716 0012991  19.2146 340.9352 15.55917323316678
STARLINK-1411,45706,53.0457,0.0004744,15.57677022,391.1691207087197,397.5948867394536,1 45706U 20035BB  26045.43286205  .00077446  00000+0  10236-2 0  9990,2 45706  53.0457  94.6793 0004744  31.8783 328.2515 15.57677022316294
STARLINK-1423,45710,53.0541,0.0003882,15.48342615,418.93448527357305,424.2137809973383,1 45710U 20035BF  26045.51369757  .00083647  00000+0  15470-2 0  9993,2 45710  53.0541 133.2809 0003882  21.0192 339.0974 15.48342615315754
STARLINK-1433,45711,53.0528,0.0004741,15.50407418,412.3147618006542,418.7565221997984,1 45711U 20035BG  26045.63399013  .00070900  00000+0  12225-2 0  9998,2 45711  53.0528 132.0944 0004741  13.9612 346.1526 15.50407418315780
STARLINK-1434,45712,53.0509,0.0002971,15.24390263,490.57566592740204,494.6582679345529,1 45712U 20035BH  26045.63773797  .00033024  00000+0  13378-2 0  9990,2 45712  53.0509 126.6042 0002971   1.0305 359.0698 15.24390263315871
STARLINK-1465,45731,53.0555,0.0004318,15.46291961,424.645833285148,430.5232544104156,1 45731U 20038B   26045.20864850  .00072823  00000+0  14489-2 0  9992,2 45731  53.0555 335.4868 0004318 123.0439 237.0982 15.46291961312742
STARLINK-1471,45735,53.0457,0.0004076,15.4752122,421.2074828248624,426.75256862423157,1 45735U 20038F   26045.60004291  .00018541  00000+0  36234-3 0  9995,2 45735  53.0457 252.5233 0004076 143.0205 217.1083 15.47521220313956
STARLINK-1474,45738,53.0202,0.0008021,16.08492593,245.66451836623855,256.29895064012817,1 45738U 20038J   26045.60453596  .00612874  20260-3  69827-3 0  9991,2 45738  53.0202 180.7724 0008021 316.5501  43.4899 16.08492593314947
STARLINK-1480,45741,53.0533,0.0010627,15.44555998,425.44513824525166,439.9208550661433,1 45741U 20038M   26045.00944238  .00060431  00000+0  12773-2 0  9996,2 45741  53.0533 330.2363 0010627  97.4678 262.7536 15.44555998312810
STARLINK-1500,45744,53.0384,0.0003972,15.33460092,462.77997974262234,468.21656360244015,1 45744U 20038Q   26045.09357776  .00024019  00000+0  74122-3 0  9992,2 45744  53.0384 303.3169 0003972 140.2788 219.8504 15.33460092313194
STARLINK-1504,45746,53.0224,0.0004086,15.51530467,409.4823683178811,415.03147823198196,1 45746U 20038S   26045.57312521  .00024141  00000+0  40745-3 0  9996,2 45746  53.0224 253.5655 0004086 130.0647 230.0720 15.51530467313923
STARLINK-1506,45747,53.0771,0.0004523,15.25471895,486.26261628645807,492.47496202332786,1 45747U 20038T   26045.14396481  .00009193  00000+0  37137-3 0  9998,2 45747  53.0771 311.2033 0004523 151.0203 209.1046 15.25471895313096
STARLINK-1464,45751,53.0538,0.0004402,15.41637393,438.274476292936,444.2782878345042,1 45751U 20038X   26045.17991859  .00075420  00000+0  17554-2 0  9992,2 45751  53.0538 316.1936 0004402 128.8930 231.2467 15.41637393313024
STARLINK-1477,45754,53.0526,0.000194,15.1295213,525.863093916726,528.5423657318979,1 45754U 20038AA  26045.12617963  .00015146  00000+0  86421-3 0  9990,2 45754  53.0526 319.9380 0001940  72.4212 287.6991 15.12952130312965
STARLINK-1478,45755,53.0553,0.0007931,15.50519811,409.8195333018539,420.5951360855461,1 45755U 20038AB  26045.13801543  .00069794  00000+0  11981-2 0  9997,2 45755  53.0553 311.3378 0007931 119.1984 240.9819 15.50519811313071
STARLINK-1484,45756,53.003,0.0004062,15.8806449,304.99396615405567,310.4255480595293,1 45756U 20038AC  26045.66668981  .00199392  00000+0  70241-3 0  9996,2 45756  53.0030 174.6986 0004062 319.1119 186.6954 15.88064490  6020
STARLINK-1493,45759,53.0544,0.0002708,15.43773389,433.13961866469253,436.82960532975085,1 45759U 20038AF  26045.31324355  .00054455  00000+0  11858-2 0  9993,2 45759  53.0544 316.0716 0002708 126.1225 234.0032 15.43773389313026
STARLINK-1494,45760,53.0486,0.0001693,15.69271111,359.8420424318574,362.12390845554364,1 45760U 20038AG  26045.60015072  .00058740  00000+0  49509-3 0  9996,2 45760  53.0486 266.0136 0001693 195.8808 164.2155 15.69271111313760
STARLINK-1502,45764,53.0551,0.0001385,15.42101357,438.9641999177202,440.85279852100393,1 45764U 20038AL  26045.66668981  .00647348  00000+0  13872-1 0  9999,2 45764  53.0551 315.7255 0001385  79.7928 308.4896 15.42101357  5837
STARLINK-1470,45772,53.0508,0.0002555,15.25559547,487.3511548238321,490.8603158615924,1 45772U 20038AU  26044.91276128  .00013481  00000+0  53667-3 0  9996,2 45772  53.0508 284.4815 0002555 105.9817 254.1462 15.25559547313445
STARLINK-1482,45773,53.1572,0.0001256,15.29371867,476.82774924911155,478.5499327003645,1 45773U 20038AV  26045.09942479 -.00000877  00000+0 -18035-4 0  9994,2 45773  53.1572 300.5603 0001256  88.6410 271.4734 15.29371867313238
STARLINK-1496,45780,53.0538,0.0008546,15.44002026,428.490081643743,440.13391947549917,1 45780U 20038BC  26045.30346718  .00075708  00000+0  16262-2 0  9991,2 45780  53.0538 289.3468 0008546 122.6017 237.5814 15.44002026313395
STARLINK-1513,45786,53.1575,0.0001599,15.29358614,476.6321951631362,478.8247009334227,1 45786U 20038BJ  26045.10899976  .00006039  00000+0  22143-3 0  9991,2 45786  53.1575 300.6491 0001599  93.9454 266.1729 15.29358614313238
STARLINK-1522,46027,53.0553,0.000138,15.06399999,546.2558629017158,548.1672591045526,1 46027U 20055A   26045.54066259 -.00000031  00000+0  16817-4 0  9996,2 46027  53.0553 230.5352 0001380  82.0499 278.0647 15.06399999305390
